{
  "type": "FeatureCollection",
  "features": [
    {
      "type": "Feature",
      "properties": {
        "norad_id": 66969,
        "name": "STARLINK-36149",
        "group": "last-30-days",
        "lat": -14.82796731265207,
        "lon": -88.11898657073984,
        "alt_km": 405.9167759038801,
        "timestamp": "2025-12-27T20:30:58.024491+00:00",
        "meta_object_name": "STARLINK-36149",
        "meta_object_id": "2025-288L",
        "meta_epoch": "2025-12-27T12:00:02.000160",
        "meta_mean_motion": 15.55697418,
        "meta_eccentricity": 0.0001326,
        "meta_inclination": 42.9999,
        "meta_ra_of_asc_node": 77.4655,
        "meta_arg_of_pericenter": 271.633,
        "meta_mean_anomaly": 101.8347,
        "meta_ephemeris_type": 0,
        "meta_classification_type": "U",
        "meta_norad_cat_id": 66969,
        "meta_element_set_no": 999,
        "meta_rev_at_epoch": 420,
        "meta_bstar": -0.0326,
        "meta_mean_motion_dot": -0.02054274,
        "meta_mean_motion_ddot": 0,
        "tle_line1": "1 66969U 25288L   25361.50002315 -.02054274  00000+0 -32600-1 0  9991",
        "tle_line2": "2 66969  42.9999  77.4655 0001326 271.6330 101.8347 15.55697418  4209"
      },
      "geometry": {
        "type": "Point",
        "coordinates": [
          -88.11898657073984,
          -14.82796731265207
        ]
      }
    },
    {
      "type": "Feature",
      "properties": {
        "norad_id": 66970,
        "name": "STARLINK-35703",
        "group": "last-30-days",
        "lat": -19.74625384706818,
        "lon": -81.98608656587648,
        "alt_km": 406.45479025388704,
        "timestamp": "2025-12-27T20:30:58.024503+00:00",
        "meta_object_name": "STARLINK-35703",
        "meta_object_id": "2025-288M",
        "meta_epoch": "2025-12-27T12:00:02.000160",
        "meta_mean_motion": 15.55698696,
        "meta_eccentricity": 0.00014,
        "meta_inclination": 42.9998,
        "meta_ra_of_asc_node": 77.4459,
        "meta_arg_of_pericenter": 282.825,
        "meta_mean_anomaly": 98.3092,
        "meta_ephemeris_type": 0,
        "meta_classification_type": "U",
        "meta_norad_cat_id": 66970,
        "meta_element_set_no": 999,
        "meta_rev_at_epoch": 420,
        "meta_bstar": -0.032689,
        "meta_mean_motion_dot": -0.02059448,
        "meta_mean_motion_ddot": 0,
        "tle_line1": "1 66970U 25288M   25361.50002315 -.02059448  00000+0 -32689-1 0  9998",
        "tle_line2": "2 66970  42.9998  77.4459 0001400 282.8250  98.3092 15.55698696  4206"
      },
      "geometry": {
        "type": "Point",
        "coordinates": [
          -81.98608656587648,
          -19.74625384706818
        ]
      }
    },
    {
      "type": "Feature",
      "properties": {
        "norad_id": 66971,
        "name": "STARLINK-35678",
        "group": "last-30-days",
        "lat": -9.747114573185867,
        "lon": -93.98091154712844,
        "alt_km": 405.74919708613106,
        "timestamp": "2025-12-27T20:30:58.024514+00:00",
        "meta_object_name": "STARLINK-35678",
        "meta_object_id": "2025-288N",
        "meta_epoch": "2025-12-27T12:00:02.000160",
        "meta_mean_motion": 15.55703228,
        "meta_eccentricity": 0.0001398,
        "meta_inclination": 43,
        "meta_ra_of_asc_node": 77.4856,
        "meta_arg_of_pericenter": 281.8772,
        "meta_mean_anomaly": 83.9187,
        "meta_ephemeris_type": 0,
        "meta_classification_type": "U",
        "meta_norad_cat_id": 66971,
        "meta_element_set_no": 999,
        "meta_rev_at_epoch": 420,
        "meta_bstar": -0.032798,
        "meta_mean_motion_dot": -0.02065885,
        "meta_mean_motion_ddot": 0,
        "tle_line1": "1 66971U 25288N   25361.50002315 -.02065885  00000+0 -32798-1 0  9992",
        "tle_line2": "2 66971  43.0000  77.4856 0001398 281.8772  83.9187 15.55703228  4201"
      },
      "geometry": {
        "type": "Point",
        "coordinates": [
          -93.98091154712844,
          -9.747114573185867
        ]
      }
    },
    {
      "type": "Feature",
      "properties": {
        "norad_id": 66972,
        "name": "STARLINK-34846",
        "group": "last-30-days",
        "lat": -11.026794852144043,
        "lon": -92.5378723856893,
        "alt_km": 405.657079857333,
        "timestamp": "2025-12-27T20:30:58.024526+00:00",
        "meta_object_name": "STARLINK-34846",
        "meta_object_id": "2025-288P",
        "meta_epoch": "2025-12-27T12:00:02.000160",
        "meta_mean_motion": 15.55697588,
        "meta_eccentricity": 0.0001556,
        "meta_inclination": 43.0002,
        "meta_ra_of_asc_node": 77.4809,
        "meta_arg_of_pericenter": 274.1973,
        "meta_mean_anomaly": 93.5166,
        "meta_ephemeris_type": 0,
        "meta_classification_type": "U",
        "meta_norad_cat_id": 66972,
        "meta_element_set_no": 999,
        "meta_rev_at_epoch": 420,
        "meta_bstar": -0.032612,
        "meta_mean_motion_dot": -0.02055151,
        "meta_mean_motion_ddot": 0,
        "tle_line1": "1 66972U 25288P   25361.50002315 -.02055151  00000+0 -32612-1 0  9993",
        "tle_line2": "2 66972  43.0002  77.4809 0001556 274.1973  93.5166 15.55697588  4201"
      },
      "geometry": {
        "type": "Point",
        "coordinates": [
          -92.5378723856893,
          -11.026794852144043
        ]
      }
    },
    {
      "type": "Feature",
      "properties": {
        "norad_id": 66973,
        "name": "STARLINK-35778",
        "group": "last-30-days",
        "lat": -12.301690801990537,
        "lon": -91.07936187148961,
        "alt_km": 405.97419750022254,
        "timestamp": "2025-12-27T20:30:58.024537+00:00",
        "meta_object_name": "STARLINK-35778",
        "meta_object_id": "2025-288Q",
        "meta_epoch": "2025-12-27T12:00:02.000160",
        "meta_mean_motion": 15.55698102,
        "meta_eccentricity": 0.0001423,
        "meta_inclination": 43.0002,
        "meta_ra_of_asc_node": 77.4765,
        "meta_arg_of_pericenter": 283.2734,
        "meta_mean_anomaly": 86.3589,
        "meta_ephemeris_type": 0,
        "meta_classification_type": "U",
        "meta_norad_cat_id": 66973,
        "meta_element_set_no": 999,
        "meta_rev_at_epoch": 420,
        "meta_bstar": -0.032674,
        "meta_mean_motion_dot": -0.02058564,
        "meta_mean_motion_ddot": 0,
        "tle_line1": "1 66973U 25288Q   25361.50002315 -.02058564  00000+0 -32674-1 0  9993",
        "tle_line2": "2 66973  43.0002  77.4765 0001423 283.2734  86.3589 15.55698102  4204"
      },
      "geometry": {
        "type": "Point",
        "coordinates": [
          -91.07936187148961,
          -12.301690801990537
        ]
      }
    },
    {
      "type": "Feature",
      "properties": {
        "norad_id": 66974,
        "name": "STARLINK-35780",
        "group": "last-30-days",
        "lat": -13.568279399035402,
        "lon": -89.60717033345635,
        "alt_km": 405.95620736827186,
        "timestamp": "2025-12-27T20:30:58.024547+00:00",
        "meta_object_name": "STARLINK-35780",
        "meta_object_id": "2025-288R",
        "meta_epoch": "2025-12-27T12:00:02.000160",
        "meta_mean_motion": 15.55693021,
        "meta_eccentricity": 0.000146,
        "meta_inclination": 43.0002,
        "meta_ra_of_asc_node": 77.4721,
        "meta_arg_of_pericenter": 279.0977,
        "meta_mean_anomaly": 92.4525,
        "meta_ephemeris_type": 0,
        "meta_classification_type": "U",
        "meta_norad_cat_id": 66974,
        "meta_element_set_no": 999,
        "meta_rev_at_epoch": 420,
        "meta_bstar": -0.032461,
        "meta_mean_motion_dot": -0.02046269,
        "meta_mean_motion_ddot": 0,
        "tle_line1": "1 66974U 25288R   25361.50002315 -.02046269  00000+0 -32461-1 0  9997",
        "tle_line2": "2 66974  43.0002  77.4721 0001460 279.0977  92.4525 15.55693021  4203"
      },
      "geometry": {
        "type": "Point",
        "coordinates": [
          -89.60717033345635,
          -13.568279399035402
        ]
      }
    },
    {
      "type": "Feature",
      "properties": {
        "norad_id": 66975,
        "name": "STARLINK-35777",
        "group": "last-30-days",
        "lat": -16.074343923206946,
        "lon": -86.6157347875582,
        "alt_km": 406.07922306838555,
        "timestamp": "2025-12-27T20:30:58.024557+00:00",
        "meta_object_name": "STARLINK-35777",
        "meta_object_id": "2025-288S",
        "meta_epoch": "2025-12-27T12:00:02.000160",
        "meta_mean_motion": 15.55698556,
        "meta_eccentricity": 0.0001429,
        "meta_inclination": 42.9997,
        "meta_ra_of_asc_node": 77.4609,
        "meta_arg_of_pericenter": 276.0105,
        "meta_mean_anomaly": 99.3752,
        "meta_ephemeris_type": 0,
        "meta_classification_type": "U",
        "meta_norad_cat_id": 66975,
        "meta_element_set_no": 999,
        "meta_rev_at_epoch": 420,
        "meta_bstar": -0.03268,
        "meta_mean_motion_dot": -0.02058907,
        "meta_mean_motion_ddot": 0,
        "tle_line1": "1 66975U 25288S   25361.50002315 -.02058907  00000+0 -32680-1 0  9993",
        "tle_line2": "2 66975  42.9997  77.4609 0001429 276.0105  99.3752 15.55698556  4201"
      },
      "geometry": {
        "type": "Point",
        "coordinates": [
          -86.6157347875582,
          -16.074343923206946
        ]
      }
    }
  ]
}